IRIDIUM 136             
1 42962U 17061H   24252.56915137  .00000991  00000+0  34664-3 0  9994
2 42962  86.3936 295.4713 0001985  85.7598 274.3824 14.34218117362155
